[
    {
        "Altitude(m)": 607895.8105208153,
        "Argument of Periapsis(deg)": 0.0,
        "Eccentricity": 0.0,
        "Inclination(deg)": 60.0,
        "Latitude(deg)": 40.998321000013966,
        "Longitude(deg)": -159.9112618442939,
        "Mean Anomaly(deg)": 130.90909999999997,
        "RAAN(deg)": 150.0,
        "Satellite Name": "Test1 668",
        "Satellite Number": 668,
        "Semi-Major Axis(m)": 6980739.136638005,
        "Time(s)": 0
    },
    {
        "Altitude(m)": 607795.1230390382,
        "Argument of Periapsis(deg)": 0.00010418945913296404,
        "Eccentricity": 0.0,
        "Inclination(deg)": 60.0,
        "Latitude(deg)": 40.530644328132645,
        "Longitude(deg)": -159.4146696648961,
        "Mean Anomaly(deg)": 131.5292061454618,
        "RAAN(deg)": 149.99957995086027,
        "Satellite Name": "Test1 668",
        "Satellite Number": 668,
        "Semi-Major Axis(m)": 6980739.136638005,
        "Time(s)": 10
    }
]